GLOBALSTAR M045 [-]     
1 25676U 99019A   24035.19555455 -.00000025  00000+0  60981-3 0  9991
2 25676  51.9974 287.4649 0000956  23.5215 149.6134 12.27030860132374
GLOBALSTAR M019 [-]     
1 25677U 99019B   24034.28580900  .00000013  00000+0  10693-2 0  9994
2 25677  51.9904  25.2526 0001127  36.0162  66.7460 12.13852764124430
GLOBALSTAR M044 [-]     
1 25678U 99019C   24034.84724493 -.00000046  00000+0  53020-3 0  9993
2 25678  51.9959 272.5869 0006480 149.9607 291.4829 11.90228377111863
GLOBALSTAR M042 [-]     
1 25679U 99019D   24034.97290979 -.00000102  00000+0 -90609-4 0  9994
2 25679  52.0039  20.2141 0003068 354.0150  40.4095 12.22055160124222
GLOBALSTAR M025 [-]     
1 25770U 99031A   24035.05558057 -.00000037  00000+0  94747-3 0  9996
2 25770  51.9776 235.5398 0002153  56.5718 117.2083 11.22549284 83311
GLOBALSTAR M049 [-]     
1 25771U 99031B   24034.87360887 -.00000090  00000+0 -86024-3 0  9997
2 25771  51.9834 245.6321 0002138 253.2437 106.8124 11.12102606 61871
GLOBALSTAR M047 [-]     
1 25772U 99031C   24034.85603345 -.00000060  00000+0  28100-3 0  9992
2 25772  51.9840 290.3466 0016777 122.7907 237.4517 11.31918120414564
GLOBALSTAR M052 [-]     
1 25773U 99031D   24035.16366463 -.00000001  00000+0  21736-2 0  9997
2 25773  51.9912   0.6636 0002743  63.6696 309.2731 11.15048084 80674
